NORAD_CAT_ID,OBJECT_NAME,OBJECT_TYPE,EPOCH,MEAN_MOTION,ECCENTRICITY,INCLINATION,RA_OF_ASC_NODE,ARG_OF_PERICENTER,MEAN_ANOMALY,BSTAR,MEAN_MOTION_DOT,MEAN_MOTION_DDOT,TLE_LINE0,TLE_LINE1,TLE_LINE2,SEMIMAJOR_AXIS,PERIOD,APOGEE,PERIGEE,DECAYED
50840.0,STARLINK-3295,PAYLOAD,2022-12-05 19:25:23,15.08844515,0.0002555,53.2177,120.6966,51.07899999999999,309.043,8.3673e-05,1.044e-05,0.0,0 STARLINK-3295,1 50840U 22001AP  22339.80929807  .00001044  00000-0  83673-4 0  9994,2 50840  53.2177 120.6966 0002555  51.0790 309.0430 15.08844515 51919,6917.8669999999975,95.437,541.499,537.964,0.0
50840.0,STARLINK-3295,PAYLOAD,2022-12-06 09:43:51,15.08842171,0.0002497,53.2177,118.0202,51.1635,308.9579,7.3423e-05,8.8e-06,0.0,0 STARLINK-3295,1 50840U 22001AP  22340.40545870  .00000880  00000-0  73423-4 0  9995,2 50840  53.2177 118.0202 0002497  51.1635 308.9579 15.08842171 50712,6917.874,95.437,541.466,538.011,0.0
50840.0,STARLINK-3295,PAYLOAD,2022-12-06 16:05:24,15.08836194,0.0002577,53.2178,116.8306,52.4622,307.6604,-7.5673e-06,-4.09e-06,0.0,0 STARLINK-3295,1 50840U 22001AP  22340.67042566 -.00000409  00000-0 -75673-5 0  9997,2 50840  53.2178 116.8306 0002577  52.4622 307.6604 15.08836194 50750,6917.892,95.438,541.54,537.974,0.0
50840.0,STARLINK-3295,PAYLOAD,2022-12-07 15:56:11,15.08839696,0.000243,53.2179,112.3706,47.4239,312.6958,5.7138e-05,6.21e-06,0.0,0 STARLINK-3295,1 50840U 22001AP  22341.66402407  .00000621  00000-0  57138-4 0  9990,2 50840  53.2179 112.3706 0002430  47.4239 312.6958 15.08839696 50907,6917.880999999999,95.438,541.427,538.065,0.0
50840.0,STARLINK-3295,PAYLOAD,2022-12-08 09:25:25,15.08865522,0.0002662,53.2169,109.0988,45.933,314.1881,-0.00039375,-6.554e-05,0.0,0 STARLINK-3295,1 50840U 22001AP  22342.39265633 -.00006554  00000-0 -39375-3 0  9994,2 50840  53.2169 109.0988 0002662  45.9330 314.1881 15.08865522 51015,6917.802,95.436,541.509,537.826,0.0
50840.0,STARLINK-3295,PAYLOAD,2022-12-08 15:46:59,15.0882927,0.000251,53.2182,107.9115,46.9673,313.1529,9.7378e-05,1.261e-05,0.0,0 STARLINK-3295,1 50840U 22001AP  22342.65763257  .00001261  00000-0  97378-4 0  9994,2 50840  53.2182 107.9115 0002510  46.9673 313.1529 15.08829270 52347,6917.913000000001,95.438,541.515,538.0419999999998,0.0
50840.0,STARLINK-3295,PAYLOAD,2022-12-09 01:19:18,15.08824021,0.0002459,53.219,106.1278,50.1924,309.9284,5.284e-05,5.52e-06,0.0,0 STARLINK-3295,1 50840U 22001AP  22343.05508088  .00000552  00000-0  52840-4 0  9995,2 50840  53.2190 106.1278 0002459  50.1924 309.9284 15.08824021 52402,6917.929,95.439,541.495,538.0930000000002,0.0
50840.0,STARLINK-3295,PAYLOAD,2022-12-09 07:40:54,15.08785142,0.0002576,53.219,104.9399,18.295,341.8135,-0.0001771,-3.102e-05,0.0,0 STARLINK-3295,1 50840U 22001AP  22343.32007089 -.00003102  00000-0 -17710-3 0  9992,2 50840  53.2190 104.9399 0002576  18.2950 341.8135 15.08785142 52440,6918.0480000000025,95.441,541.695,538.131,0.0
50840.0,STARLINK-3295,PAYLOAD,2022-12-09 20:23:56,15.08840422,0.0001815,53.2184,102.5586,36.804,323.3077,-8.5121e-05,-1.643e-05,0.0,0 STARLINK-3295,1 50840U 22001AP  22343.84995584 -.00001643  00000-0 -85121-4 0  9995,2 50840  53.2184 102.5586 0001815  36.8040 323.3077 15.08840422 52528,6917.879,95.438,541.0,538.489,0.0
50840.0,STARLINK-3295,PAYLOAD,2022-12-10 13:53:07,15.08889521,0.0001781,53.219,99.2896,55.729,304.3871,0.00017672,2.529e-05,0.0,0 STARLINK-3295,1 50840U 22001AP  22344.57856222  .00002529  00000-0  17672-3 0  9998,2 50840  53.2190  99.2896 0001781  55.7290 304.3871 15.08889521 52636,6917.729,95.434,540.826,538.362,0.0
50840.0,STARLINK-3295,PAYLOAD,2022-12-10 15:28:39,15.08755944,0.0002718,53.2188,98.9922,41.9688,318.1512,-0.00063565,-0.00010368,0.0,0 STARLINK-3295,1 50840U 22001AP  22344.64490692 -.00010368  00000-0 -63565-3 0  9995,2 50840  53.2188  98.9922 0002718  41.9688 318.1512 15.08755944 52645,6918.137,95.443,541.883,538.122,0.0
50840.0,STARLINK-3295,PAYLOAD,2022-12-11 12:08:33,15.08849598,0.0002029,53.2182,95.1248,353.2826,6.8139,3.5075e-05,2.7000000000000004e-06,0.0,0 STARLINK-3295,1 50840U 22001AP  22345.50594530  .00000270  00000-0  35075-4 0  9992,2 50840  53.2182  95.1248 0002029 353.2826   6.8139 15.08849598 51483,6917.851,95.437,541.12,538.312,0.0
50840.0,STARLINK-3295,PAYLOAD,2022-12-11 13:43:57,15.08838529,0.0002705,53.2179,94.8269,39.3324,320.7864,0.00016884,2.4e-05,0.0,0 STARLINK-3295,1 50840U 22001AP  22345.57219563  .00002400  00000-0  16884-3 0  9992,2 50840  53.2179  94.8269 0002705  39.3324 320.7864 15.08838529 52783,6917.885,95.438,541.621,537.879,0.0
50840.0,STARLINK-3295,PAYLOAD,2022-12-11 20:05:29,15.08845545,0.0002022,53.2183,93.6361,37.6265,322.4868,0.00013803,1.91e-05,0.0,0 STARLINK-3295,1 50840U 22001AP  22345.83715000  .00001910  00000-0  13803-3 0  9991,2 50840  53.2183  93.6361 0002022  37.6265 322.4868 15.08845545 51536,6917.863,95.437,541.127,538.33,0.0
50840.0,STARLINK-3295,PAYLOAD,2022-12-12 11:59:20,15.08852708,0.000158,53.219,90.6585,72.7359,287.3806,-2.8498e-05,-7.42e-06,0.0,0 STARLINK-3295,1 50840U 22001AP  22346.49954634 -.00000742  00000-0 -28498-4 0  9993,2 50840  53.2190  90.6585 0001580  72.7359 287.3806 15.08852708 51632,6917.842,95.437,540.8,538.614,0.0
50840.0,STARLINK-3295,PAYLOAD,2022-12-12 18:20:53,15.08847196,0.0001814,53.2191,89.471,50.7824,309.3329,-5.0006e-05,-1.084e-05,0.0,0 STARLINK-3295,1 50840U 22001AP  22346.76451053 -.00001084  00000-0 -50006-4 0  9990,2 50840  53.2191  89.4710 0001814  50.7824 309.3329 15.08847196 51676,6917.858,95.437,540.9780000000002,538.4680000000002,0.0
50840.0,STARLINK-3295,PAYLOAD,2022-12-13 13:25:31,15.08845824,0.0002235,53.2184,85.9066,37.2655,322.8491,4.6428e-05,4.51e-06,0.0,0 STARLINK-3295,1 50840U 22001AP  22347.55938727  .00000451  00000-0  46428-4 0  9994,2 50840  53.2184  85.9066 0002235  37.2655 322.8491 15.08845824 51792,6917.863,95.437,541.274,538.181,0.0
50840.0,STARLINK-3295,PAYLOAD,2022-12-13 16:36:17,15.08844435,0.0002204,53.2185,85.31200000000003,36.5269,323.5873,3.357e-05,2.46e-06,0.0,0 STARLINK-3295,1 50840U 22001AP  22347.69186813  .00000246  00000-0  33570-4 0  9996,2 50840  53.2185  85.3120 0002204  36.5269 323.5873 15.08844435 51819,6917.8669999999975,95.437,541.257,538.207,0.0
50840.0,STARLINK-3295,PAYLOAD,2022-12-14 05:19:22,15.08837102,0.0002023,53.2188,82.9339,24.9197,335.1892,0.00010193,1.334e-05,0.0,0 STARLINK-3295,1 50840U 22001AP  22348.22178848  .00001334  00000-0  10193-3 0  9999,2 50840  53.2188  82.9339 0002023  24.9197 335.1892 15.08837102 53182,6917.889,95.438,541.154,538.355,0.0
50840.0,STARLINK-3295,PAYLOAD,2022-12-14 11:40:55,15.08839239,0.0001983,53.2176,81.7425,30.053,330.0576,2.1143e-05,4.8e-07,0.0,0 STARLINK-3295,1 50840U 22001AP  22348.48675098  .00000048  00000-0  21143-4 0  9995,2 50840  53.2176  81.7425 0001983  30.0530 330.0576 15.08839239 51932,6917.8830000000025,95.438,541.12,538.376,0.0
50840.0,STARLINK-3295,PAYLOAD,2022-12-14 13:16:18,15.08838958,0.0002317,53.2177,81.4451,33.5405,326.5733,4.8235e-05,4.79e-06,0.0,0 STARLINK-3295,1 50840U 22001AP  22348.55299133  .00000479  00000-0  48235-4 0  9994,2 50840  53.2177  81.4451 0002317  33.5405 326.5733 15.08838958 51943,6917.884,95.438,541.351,538.146,0.0
50840.0,STARLINK-3295,PAYLOAD,2022-12-15 06:45:32,15.08843034,0.0002349,53.218,78.1743,35.7632,324.3517,5.6434e-05,6.1e-06,0.0,0 STARLINK-3295,1 50840U 22001AP  22349.28162892  .00000610  00000-0  56434-4 0  9993,2 50840  53.2180  78.1743 0002349  35.7632 324.3517 15.08843034 53348,6917.871,95.437,541.361,538.111,0.0
50840.0,STARLINK-3295,PAYLOAD,2022-12-15 13:07:05,15.08837786,0.0002441,53.2181,76.9848,33.5177,326.5969,1.2471e-05,-9.000000000000002e-07,0.0,0 STARLINK-3295,1 50840U 22001AP  22349.54659315 -.00000090  00000-0  12471-4 0  9999,2 50840  53.2181  76.9848 0002441  33.5177 326.5969 15.08837786 52097,6917.887,95.438,541.441,538.064,0.0
50840.0,STARLINK-3295,PAYLOAD,2022-12-15 16:17:51,15.08837726,0.0002466,53.218,76.3902,33.7013,326.4135,1.0919000000000003e-05,-1.15e-06,0.0,0 STARLINK-3295,1 50840U 22001AP  22349.67907342 -.00000115  00000-0  10919-4 0  9992,2 50840  53.2180  76.3902 0002466  33.7013 326.4135 15.08837726 52110,6917.887,95.438,541.4580000000002,538.0459999999998,0.0
50840.0,STARLINK-3295,PAYLOAD,2022-12-16 06:36:20,15.08838693,0.0002479,53.2192,73.7151,36.2904,323.8256,4.2574e-05,3.89e-06,0.0,0 STARLINK-3295,1 50840U 22001AP  22350.27523208  .00000389  00000-0  42574-4 0  9999,2 50840  53.2192  73.7151 0002479  36.2904 323.8256 15.08838693 53492,6917.884,95.438,541.464,538.034,0.0
50840.0,STARLINK-3295,PAYLOAD,2022-12-16 12:57:53,15.08832993,0.000255,53.2187,72.5245,33.7025,326.4128,-1.6215e-05,-5.46e-06,0.0,0 STARLINK-3295,1 50840U 22001AP  22350.54019743 -.00000546  00000-0 -16215-4 0  9993,2 50840  53.2187  72.5245 0002550  33.7025 326.4128 15.08832993 52249,6917.901999999999,95.438,541.531,538.003,0.0
50840.0,STARLINK-3295,PAYLOAD,2022-12-16 14:33:16,15.08831674,0.0002493,53.2185,72.2273,33.1062,327.0086,-2.595400000000001e-05,-7.01e-06,0.0,0 STARLINK-3295,1 50840U 22001AP  22350.60643868 -.00000701  00000-0 -25954-4 0  9994,2 50840  53.2185  72.2273 0002493  33.1062 327.0086 15.08831674 53545,6917.906,95.438,541.495,538.0459999999998,0.0
50840.0,STARLINK-3295,PAYLOAD,2022-12-17 04:51:43,15.0884158,0.0002469,53.219,69.5511,35.058,325.0575,3.3231e-05,2.41e-06,0.0,0 STARLINK-3295,1 50840U 22001AP  22351.20259171  .00000241  00000-0  33231-4 0  9995,2 50840  53.2190  69.5511 0002469  35.0580 325.0575 15.08841580 53632,6917.876,95.437,541.4490000000002,538.033,0.0
50840.0,STARLINK-3295,PAYLOAD,2022-12-17 11:13:16,15.08847603,0.0002481,53.2189,68.3617,32.7551,327.3595,5.437e-05,5.77e-06,0.0,0 STARLINK-3295,1 50840U 22001AP  22351.46754699  .00000577  00000-0  54370-4 0  9997,2 50840  53.2189  68.3617 0002481  32.7551 327.3595 15.08847603 52380,6917.857,95.437,541.438,538.006,0.0
